[{"OBJECT_NAME":"THEOS-2 (T2V)","OBJECT_ID":"2023-155A","EPOCH":"2026-03-09T23:23:00.745152","MEAN_MOTION":14.81769696,"ECCENTRICITY":0.00013176,"INCLINATION":97.896,"RA_OF_ASC_NODE":141.418,"ARG_OF_PERICENTER":94.2148,"MEAN_ANOMALY":265.9216,"EPHEMERIS_TYPE":0,"CLASSIFICATION_TYPE":"U","NORAD_CAT_ID":58016,"ELEMENT_SET_NO":999,"REV_AT_EPOCH":13073,"BSTAR":0.00016747665,"MEAN_MOTION_DOT":1.269e-5,"MEAN_MOTION_DDOT":0},{"OBJECT_NAME":"KINEIS-1B","OBJECT_ID":"2024-114A","EPOCH":"2026-03-09T23:21:36.874080","MEAN_MOTION":14.80419144,"ECCENTRICITY":0.00037258,"INCLINATION":97.9923,"RA_OF_ASC_NODE":93.6056,"ARG_OF_PERICENTER":72.6179,"MEAN_ANOMALY":287.544,"EPHEMERIS_TYPE":0,"CLASSIFICATION_TYPE":"U","NORAD_CAT_ID":60079,"ELEMENT_SET_NO":999,"REV_AT_EPOCH":9272,"BSTAR":0.00022203234,"MEAN_MOTION_DOT":1.644e-5,"MEAN_MOTION_DDOT":0}]
